GLOBALSTAR M094         
1 39074U 13005C   25321.79380793 -.00000114  00000+0 -58272-4 0  9996
2 39074  51.9963  74.4274 0000615 131.3117 228.7803 12.62264954591775
GLOBALSTAR M096         
1 39075U 13005D   25321.88611941 -.00000094  00000+0  55344-4 0  9992
2 39075  52.0047 122.7814 0000875 114.7945 245.3012 12.62268953590702
GLOBALSTAR M078         
1 39076U 13005E   25321.93941030 -.00000162  00000+0 -32216-3 0  9993
2 39076  51.9865 206.9255 0001281 121.0265 239.0728 12.62271800589337
GLOBALSTAR M095         
1 39077U 13005F   25321.72796123 -.00000070  00000+0  18685-3 0  9993
2 39077  52.0065 204.8723 0000776 103.3587 256.7366 12.62266414589167
GLOBALSTAR M087         
1 52888U 22064A   25321.82005388 -.00000085  00000+0  10408-3 0  9991
2 52888  52.0015 345.9486 0000229 139.9671 220.1212 12.62260518164446
